{
  "links" : {
    "next" : "https://api.nasa.gov/neo/rest/v1/neo/browse?page=45&size=20&api_key=jqAGvNAwUIBu4fl9FSOjdm3V4F7hIglRzI6pdX9d",
    "prev" : "https://api.nasa.gov/neo/rest/v1/neo/browse?page=43&size=20&api_key=jqAGvNAwUIBu4fl9FSOjdm3V4F7hIglRzI6pdX9d",
    "self" : "https://api.nasa.gov/neo/rest/v1/neo/browse?page=44&size=20&api_key=jqAGvNAwUIBu4fl9FSOjdm3V4F7hIglRzI6pdX9d"
  },
  "page" : {
    "size" : 20,
    "total_elements" : 20750,
    "total_pages" : 1038,
    "number" : 44
  },
  "near_earth_objects" : [ {
    "links" : {
      "self" : "https://api.nasa.gov/neo/rest/v1/neo/3410170?api_key=jqAGvNAwUIBu4fl9FSOjdm3V4F7hIglRzI6pdX9d"
    },
    "neo_reference_id" : "3410170",
    "name" : "(2008 JU2)",
    "designation" : "2008 JU2",
    "nasa_jpl_url" : "http://ssd.jpl.nasa.gov/sbdb.cgi?sstr=3410170",
    "absolute_magnitude_h" : 22.8,
    "estimated_diameter" : {
      "kilometers" : {
        "estimated_diameter_min" : 0.0732073989,
        "estimated_diameter_max" : 0.1636967205
      },
      "meters" : {
        "estimated_diameter_min" : 73.2073989347,
        "estimated_diameter_max" : 163.696720474
      },
      "miles" : {
        "estimated_diameter_min" : 0.0454889547,
        "estimated_diameter_max" : 0.1017163949
      },
      "feet" : {
        "estimated_diameter_min" : 240.181762721,
        "estimated_diameter_max" : 537.0627483999
      }
    },
    "is_potentially_hazardous_asteroid" : false,
    "close_approach_data" : [ {
      "close_approach_date" : "2008-05-21",
      "epoch_date_close_approach" : 1211353200000,
      "relative_velocity" : {
        "kilometers_per_second" : "8.6956718514",
        "kilometers_per_hour" : "31304.4186651067",
        "miles_per_hour" : "19451.3483644381"
      },
      "miss_distance" : {
        "astronomical" : "0.062898615",
        "lunar" : "24.4675598145",
        "kilometers" : "9409499",
        "miles" : "5846791.5"
      },
      "orbiting_body" : "Earth"
    } ],
    "orbital_data" : {
      "orbit_id" : "19",
      "orbit_determination_date" : "2017-04-06 09:03:32",
      "first_observation_date" : "2008-05-03",
      "last_observation_date" : "2008-05-30",
      "data_arc_in_days" : 27,
      "observations_used" : 152,
      "orbit_uncertainty" : "7",
      "minimum_orbit_intersection" : ".0630622",
      "jupiter_tisserand_invariant" : "3.414",
      "epoch_osculation" : "2458600.5",
      "eccentricity" : ".522125550116984",
      "semi_major_axis" : "2.250711003164205",
      "inclination" : "10.69532929666505",
      "ascending_node_longitude" : "65.6126771628839",
      "orbital_period" : "1233.326400334126",
      "perihelion_distance" : "1.075557282482746",
      "perihelion_argument" : "175.7448499940079",
      "aphelion_distance" : "3.425864723845665",
      "perihelion_time" : "2458304.330291673785",
      "mean_anomaly" : "86.45002245030376",
      "mean_motion" : ".291893532727809",
      "equinox" : "J2000",
      "orbit_class" : {
        "orbit_class_type" : "AMO",
        "orbit_class_range" : "1.017 AU < q (perihelion) < 1.3 AU",
        "orbit_class_description" : "Near-Earth asteroid orbits similar to that of 1221 Amor"
      }
    },
    "is_sentry_object" : false
  }, {
    "links" : {
      "self" : "https://api.nasa.gov/neo/rest/v1/neo/3410588?api_key=jqAGvNAwUIBu4fl9FSOjdm3V4F7hIglRzI6pdX9d"
    },
    "neo_reference_id" : "3410588",
    "name" : "(2008 JS26)",
    "designation" : "2008 JS26",
    "nasa_jpl_url" : "http://ssd.jpl.nasa.gov/sbdb.cgi?sstr=3410588",
    "absolute_magnitude_h" : 23.7,
    "estimated_diameter" : {
      "kilometers" : {
        "estimated_diameter_min" : 0.0483676488,
        "estimated_diameter_max" : 0.1081533507
      },
      "meters" : {
        "estimated_diameter_min" : 48.3676488219,
        "estimated_diameter_max" : 108.1533506775
      },
      "miles" : {
        "estimated_diameter_min" : 0.0300542543,
        "estimated_diameter_max" : 0.0672033557
      },
      "feet" : {
        "estimated_diameter_min" : 158.6865169607,
        "estimated_diameter_max" : 354.8338390368
      }
    },
    "is_potentially_hazardous_asteroid" : false,
    "close_approach_data" : [ {
      "close_approach_date" : "2008-06-08",
      "epoch_date_close_approach" : 1212908400000,
      "relative_velocity" : {
        "kilometers_per_second" : "8.1454366533",
        "kilometers_per_hour" : "29323.571951894",
        "miles_per_hour" : "18220.5272497755"
      },
      "miss_distance" : {
        "astronomical" : "0.0595773703",
        "lunar" : "23.1755981445",
        "kilometers" : "8912648",
        "miles" : "5538062.5"
      },
      "orbiting_body" : "Earth"
    } ],
    "orbital_data" : {
      "orbit_id" : "16",
      "orbit_determination_date" : "2017-04-06 09:03:26",
      "first_observation_date" : "2008-05-14",
      "last_observation_date" : "2008-06-02",
      "data_arc_in_days" : 19,
      "observations_used" : 50,
      "orbit_uncertainty" : "7",
      "minimum_orbit_intersection" : ".0474594",
      "jupiter_tisserand_invariant" : "3.512",
      "epoch_osculation" : "2458600.5",
      "eccentricity" : ".5120301038451065",
      "semi_major_axis" : "2.154674162873414",
      "inclination" : "7.199241859635785",
      "ascending_node_longitude" : "73.4796967288371",
      "orbital_period" : "1155.236315788661",
      "perihelion_distance" : "1.051416127504972",
      "perihelion_argument" : "200.7614225304155",
      "aphelion_distance" : "3.257932198241856",
      "perihelion_time" : "2458108.579961074314",
      "mean_anomaly" : "153.2943620218083",
      "mean_motion" : ".3116245525524653",
      "equinox" : "J2000",
      "orbit_class" : {
        "orbit_class_type" : "AMO",
        "orbit_class_range" : "1.017 AU < q (perihelion) < 1.3 AU",
        "orbit_class_description" : "Near-Earth asteroid orbits similar to that of 1221 Amor"
      }
    },
    "is_sentry_object" : false
  }, {
    "links" : {
      "self" : "https://api.nasa.gov/neo/rest/v1/neo/3410622?api_key=jqAGvNAwUIBu4fl9FSOjdm3V4F7hIglRzI6pdX9d"
    },
    "neo_reference_id" : "3410622",
    "name" : "(2008 JD33)",
    "designation" : "2008 JD33",
    "nasa_jpl_url" : "http://ssd.jpl.nasa.gov/sbdb.cgi?sstr=3410622",
    "absolute_magnitude_h" : 25.599,
    "estimated_diameter" : {
      "kilometers" : {
        "estimated_diameter_min" : 0.0201722795,
        "estimated_diameter_max" : 0.0451065882
      },
      "meters" : {
        "estimated_diameter_min" : 20.1722794836,
        "estimated_diameter_max" : 45.1065881864
      },
      "miles" : {
        "estimated_diameter_min" : 0.0125344695,
        "estimated_diameter_max" : 0.0280279258
      },
      "feet" : {
        "estimated_diameter_min" : 66.1820214209,
        "estimated_diameter_max" : 147.9874987855
      }
    },
    "is_potentially_hazardous_asteroid" : false,
    "close_approach_data" : [ ],
    "orbital_data" : {
      "orbit_id" : "11",
      "orbit_determination_date" : "2017-04-06 09:03:25",
      "first_observation_date" : "2008-05-15",
      "last_observation_date" : "2008-05-15",
      "data_arc_in_days" : null,
      "observations_used" : 13,
      "orbit_uncertainty" : "9",
      "minimum_orbit_intersection" : ".0505623",
      "jupiter_tisserand_invariant" : "2.924",
      "epoch_osculation" : "2454601.5",
      "eccentricity" : ".6463874510629403",
      "semi_major_axis" : "2.908330217346082",
      "inclination" : "5.92546470078831",
      "ascending_node_longitude" : "65.76646791191445",
      "orbital_period" : "1811.607042407305",
      "perihelion_distance" : "1.028422061306421",
      "perihelion_argument" : "144.0546206344682",
      "aphelion_distance" : "4.788238373385743",
      "perihelion_time" : "2454581.204138667988",
      "mean_anomaly" : "4.033164979208328",
      "mean_motion" : ".1987185916000987",
      "equinox" : "J2000",
      "orbit_class" : {
        "orbit_class_type" : "AMO",
        "orbit_class_range" : "1.017 AU < q (perihelion) < 1.3 AU",
        "orbit_class_description" : "Near-Earth asteroid orbits similar to that of 1221 Amor"
      }
    },
    "is_sentry_object" : true,
    "sentry_data" : "https://api.nasa.gov/neo/rest/v1/neo/sentry/3410622?api_key=jqAGvNAwUIBu4fl9FSOjdm3V4F7hIglRzI6pdX9d"
  } ]
}